{
    "links": {
        "self": "http://www.neowsapp.com/rest/v1/neo/3582515?api_key=iIulBulltgU6a56xZRHN4H3l9WmuAYTsLGpBGhQ2"
    },
    "id": "3582515",
    "neo_reference_id": "3582515",
    "name": "(2011 UU63)",
    "designation": "2011 UU63",
    "nasa_jpl_url": "http://ssd.jpl.nasa.gov/sbdb.cgi?sstr=3582515",
    "absolute_magnitude_h": 24.3,
    "estimated_diameter": {
        "kilometers": {
            "estimated_diameter_min": 0.0366906138,
            "estimated_diameter_max": 0.0820427065
        },
        "meters": {
            "estimated_diameter_min": 36.6906137531,
            "estimated_diameter_max": 82.0427064882
        },
        "miles": {
            "estimated_diameter_min": 0.0227984834,
            "estimated_diameter_max": 0.0509789586
        },
        "feet": {
            "estimated_diameter_min": 120.3760332259,
            "estimated_diameter_max": 269.1689931548
        }
    },
    "is_potentially_hazardous_asteroid": false,
    "close_approach_data": [
        {
            "close_approach_date": "1915-04-11",
            "close_approach_date_full": "1915-Apr-11 06:16",
            "epoch_date_close_approach": -1727027040000,
            "relative_velocity": {
                "kilometers_per_second": "23.8292171027",
                "kilometers_per_hour": "85785.181569859",
                "miles_per_hour": "53303.575737116"
            },
            "miss_distance": {
                "astronomical": "0.3186275524",
                "lunar": "123.9461178836",
                "kilometers": "47666003.162353388",
                "miles": "29618280.9471492344"
            },
            "orbiting_body": "Earth"
        },
        {
            "close_approach_date": "1925-05-20",
            "close_approach_date_full": "1925-May-20 11:49",
            "epoch_date_close_approach": -1408018260000,
            "relative_velocity": {
                "kilometers_per_second": "10.5250054269",
                "kilometers_per_hour": "37890.0195368627",
                "miles_per_hour": "23543.3846394467"
            },
            "miss_distance": {
                "astronomical": "0.1334752463",
                "lunar": "51.9218708107",
                "kilometers": "19967612.544205381",
                "miles": "12407299.1008650178"
            },
            "orbiting_body": "Venus"
        },
        {
            "close_approach_date": "2009-10-09",
            "close_approach_date_full": "2009-Oct-09 00:53",
            "epoch_date_close_approach": 1255049580000,
            "relative_velocity": {
                "kilometers_per_second": "25.203992037",
                "kilometers_per_hour": "90734.3713333404",
                "miles_per_hour": "56378.8097876525"
            },
            "miss_distance": {
                "astronomical": "0.3534883465",
                "lunar": "137.5069667885",
                "kilometers": "52881103.706221955",
                "miles": "32858794.160514779"
            },
            "orbiting_body": "Earth"
        },
        {
            "close_approach_date": "2011-10-30",
            "close_approach_date_full": "2011-Oct-30 02:56",
            "epoch_date_close_approach": 1319943360000,
            "relative_velocity": {
                "kilometers_per_second": "14.5961354871",
                "kilometers_per_hour": "52546.0877535146",
                "miles_per_hour": "32650.0954710658"
            },
            "miss_distance": {
                "astronomical": "0.0324557406",
                "lunar": "12.6252830934",
                "kilometers": "4855309.663032522",
                "miles": "3016949.5267999236"
            },
            "orbiting_body": "Earth"
        },
        {
            "close_approach_date": "2013-12-19",
            "close_approach_date_full": "2013-Dec-19 23:55",
            "epoch_date_close_approach": 1387497300000,
            "relative_velocity": {
                "kilometers_per_second": "11.276257012",
                "kilometers_per_hour": "40594.525243245",
                "miles_per_hour": "25223.8593101708"
            },
            "miss_distance": {
                "astronomical": "0.1296839274",
                "lunar": "50.4470477586",
                "kilometers": "19400439.312274638",
                "miles": "12054873.9967124844"
            },
            "orbiting_body": "Venus"
        }
    ],
    "orbital_data": {
        "orbit_id": "9",
        "orbit_determination_date": "2017-04-06 08:52:20",
        "first_observation_date": "2011-10-21",
        "last_observation_date": "2011-10-28",
        "data_arc_in_days": 7,
        "observations_used": 60,
        "orbit_uncertainty": "8",
        "minimum_orbit_intersection": ".0256133",
        "jupiter_tisserand_invariant": "4.138",
        "epoch_osculation": "2455858.5",
        "eccentricity": ".5372022113551349",
        "semi_major_axis": "1.619091315918433",
        "inclination": "10.87519950234922",
        "ascending_node_longitude": "207.7183095645863",
        "orbital_period": "752.4981594444456",
        "perihelion_distance": ".7493118806211555",
        "perihelion_argument": "261.2355254478857",
        "aphelion_distance": "2.48887075121571",
        "perihelion_time": "2455912.890010422558",
        "mean_anomaly": "333.9794662533438",
        "mean_motion": ".4784064857590892",
        "equinox": "J2000",
        "orbit_class": {
            "orbit_class_type": "APO",
            "orbit_class_description": "Near-Earth asteroid orbits which cross the Earth’s orbit similar to that of 1862 Apollo",
            "orbit_class_range": "a (semi-major axis) > 1.0 AU; q (perihelion) < 1.017 AU"
        }
    },
    "is_sentry_object": false
}